[Satellite]
VERSION=1.1
NAME=BS-3N
NICKNAME=BS-3N
TLE1=1 23176U 94040B   11055.00957569  .00000000  00000-0  10000-3 0  2367
TLE2=2 23176   0.0762 276.6848 0004367  64.4638 285.6761  1.00265443 60712
